#cP2015  1 18  0  0  0.00000000      96 ORBIT IGb08 HLM  IGS
## 1828      0.00000000   900.00000000 57040 0.0000000000000
+   31   G01G02G03G04G05G06G07G08G09G10G11G12G13G14G15G16G17
+        G18G19G20G21G22G23G24G25G27G28G29G30G31G32  0  0  0
+          0  0  0  0  0  0  0  0  0  0  0  0  0  0  0  0  0
+          0  0  0  0  0  0  0  0  0  0  0  0  0  0  0  0  0
+          0  0  0  0  0  0  0  0  0  0  0  0  0  0  0  0  0
++         2  2  2  2  2  2  2  3  2  2  2  2  2  2  2  2  2
++         2  2  2  2  2  2  3  2  2  2  2  2  2  2  0  0  0
++         0  0  0  0  0  0  0  0  0  0  0  0  0  0  0  0  0
++         0  0  0  0  0  0  0  0  0  0  0  0  0  0  0  0  0
++         0  0  0  0  0  0  0  0  0  0  0  0  0  0  0  0  0
%c G  cc GPS ccc cccc cccc cccc cccc ccccc ccccc ccccc ccccc
%c cc cc ccc ccc cccc cccc cccc cccc ccccc ccccc ccccc ccccc
%f  1.2500000  1.025000000  0.00000000000  0.000000000000000
%f  0.0000000  0.000000000  0.00000000000  0.000000000000000
%i    0    0    0    0      0      0      0      0         0
%i    0    0    0    0      0      0      0      0         0
/* FINAL ORBIT COMBINATION FROM WEIGHTED AVERAGE OF:        
/* cod emr esa gfz grg jpl mit ngs sio                      
/* REFERENCED TO IGS TIME (IGST) AND TO WEIGHTED MEAN POLE: 
/* PCV:IGS08_1822 OL/AL:FES2004  NONE     Y  ORB:CMB CLK:CMB
*  2015  1 18 15  0  0.00000000
PG01  -3479.415301  17267.308007 -19879.072769    -10.044719  5  3  5 116       
PG02  21794.126681 -14470.311548   3041.099795    542.599931  7  9  3 112       
PG03   6006.004268  18755.724266 -17797.419119    156.272344  3  6  7  96       
PG04 -13264.761765  18449.410831 -13848.418240     -5.834424  5  4  3  85       
PG05  13872.211980  -8924.599456  20795.454502   -291.193260  7  6  6  77       
PG06  24063.901419  -4213.127140 -10411.290123     55.076052  5  7  5 120       
PG07  10244.658253  11547.348865  21748.367167    432.611004  4  5  2 127       
PG08 -22315.174293  12322.348993   6299.380050     17.167248  9  8  8 131       
PG09   8307.009024  21444.268544  13274.207783    -58.992949  6  6  3 107       
PG10  23762.817440   7526.816700   9378.832205   -159.321817  4  6  3 110       
PG11  -6559.963337  22298.073694 -13246.389900   -551.705530  7  5  4  99       
PG12  -2721.500831 -17818.982018 -19663.635738    262.321538  9  8  5 126       
PG13  12585.876840 -18773.912774  13898.638522    -79.945357  8  8  5 102       
PG14 -14480.207979  -4223.145589 -21641.316543     95.671402  7  4  4  93       
PG15   2966.597967 -25937.943614   3753.794332   -227.066448  9  9  5 102       
PG16 -14026.085274   7121.890532  21408.654277   -163.941546  9  7  8 134       
PG17  14024.161868   6519.086191 -21337.157021   -150.705651  6  6  3 115       
PG18 -20807.304945 -16430.807299   3864.871638    373.170646  6  6  3 100       
PG19  -8682.450077  23634.723622   7514.102710   -497.121384  7  4  5  99       
PG20  18379.540799  17416.227575  -8427.346758    280.012668  3  7  5  98       
PG21 -15914.146057  -8554.401118  20258.644024   -407.121299  2  5  4 111       
PG22 -24068.689244  -7807.668384  -8136.803490    308.715889  7  6  5 109       
PG23   1432.426393  25990.827753   4090.127269    -82.578834  8  9  6  87       
PG24   6658.006505 -18106.329422 -18220.096886    -41.999408  9 10 11 141       
PG25 -15208.179934 -18821.170586 -11207.856929      2.423319  8  7  5 126       
PG27 -12314.199091  16582.559266  16639.661520     45.183309  6  5  7 125       
PG28  22488.488406  13395.279000  -4183.532855    413.321425  5  7  3 117       
PG29  -5084.165086 -23653.834421  11032.525469    586.682346  5  6  6 100       
PG30  19628.097434   4918.598649  17226.348977    -86.408871  4  5  4 112       
PG31 -24846.024476   5950.571027  -7730.719773    325.209751  6  7  5  99       
PG32  -7610.460552  13676.300416 -21489.051083   -244.705360  6  6  4 103       
*  2015  1 18 15 15  0.00000000
PG01  -5464.345101  18207.317728 -18530.538474    -10.044318  5  4  5 125       
PG02  22103.230139 -14248.456528    206.286536    542.601943  7  9  3 110       
PG03   4114.622321  17779.568249 -19279.248828    156.294286  4  7  7 103       
PG04 -14631.447978  18925.835862 -11568.384176     -5.834835  5  4  3  87       
PG05  15839.071945  -7653.962396  19895.405609   -291.188476  8  7  6  86       
PG06  23006.961113  -3379.779864 -12827.773201     55.085869  5  7  5 121       
PG07   8051.810833  12698.192301  21997.695499    432.613923  4  6  2 133       
PG08 -22890.246358  12336.418327   3409.049050     17.167749 10  7  8  80       
PG09   8067.786170  22826.141893  10906.963361    -59.003421  6  6  3 112       
PG10  24444.607523   8257.625368   6794.491714   -159.323648  3  5  3 116       
PG11  -7721.976101  23057.119382 -11036.590375   -551.708057  7  5  4  94       
PG12   -780.366536 -16603.505466 -20849.866783    262.324017  9  9  5 124       
PG13  12516.932959 -17041.037458  16000.298804    -79.948646  7  8  5 106       
PG14 -14212.645712  -6705.945280 -21204.599588     95.668386  7  4  5 117       
PG15   3327.996322 -25343.827883   6491.143280   -227.068666  9  9  5 107       
PG16 -15971.916305   5727.554506  20477.855532   -163.938802  9  8  8 132       
PG17  13818.062083   8963.606148 -20601.328208   -150.707681  6  6  3 114       
PG18 -20179.968141 -16433.406743   6545.685652    373.172996  6  6  4  98       
PG19  -8812.732297  22568.699272  10160.969584   -497.122915  7  4  5 114       
PG20  17276.411421  17192.207737 -10902.161639    280.015862  4  7  6 112       
PG21 -14011.375464  -9726.018636  21110.214132   -407.123560  2  5  4 113       
PG22 -24598.330222  -8502.697162  -5517.659066    308.719616  6  6  4  88       
PG23   1107.423463  26278.704995   1254.005855    -82.581104  8  9  6  65       
PG24   8468.963899 -18947.866196 -16519.589061    -41.999915  9 10 11 148       
PG25 -13925.901489 -18237.917580 -13587.989365      2.420989  8  7  5 128       
PG27 -12431.002836  14575.002571  18351.331255     45.185675  6  6  7 132       
PG28  22702.226538  13756.224415  -1302.729066    413.323784  5  6  3  98       
PG29  -4808.547841 -24745.463842   8456.619146    586.684510  6  7  5 103       
PG30  17814.469712   5909.384203  18808.725878    -86.408764  3  5  3 122       
PG31 -23996.942392   5323.553632 -10344.428332    325.209013  6  6  5 102       
PG32  -9600.156634  12221.132844 -21520.174461   -244.697487  6  7  3 113       
*  2015  1 18 15 30  0.00000000
PG01  -7254.118765  19159.583377 -16862.662860    -10.043905  5  4  5 120       
PG02  22155.243710 -13858.730015  -2632.152012    542.603932  7  9  3 114       
PG03   2043.608390  16833.542123 -20428.826179    156.316238  4  7  7 100       
PG04 -15751.960218  19321.487973  -9089.554503     -5.835447  5  4  3  44       
PG05  17757.852626  -6539.711457  18652.887250   -291.183886  8  8  6  93       
PG06  21774.739972  -2352.268126 -15023.422332     55.095614  5  7  5 125       
PG07   5915.559202  13971.504738  21872.129314    432.616913  5  6  3 131       
PG08 -23159.578246  12238.257438    457.804700     17.168351 10  6  8 120       
PG09   7888.177209  23940.115366   8351.862933    -59.013872  6  7  4  97       
PG10  24900.276527   8808.860673   4094.748864   -159.326313  2  5  2 108       
PG11  -8696.404270  23664.801719  -8639.908510   -551.710455  7  5  5  84       
PG12   1326.857401 -15442.834415 -21681.519244    262.327149  9 10  5 129       
PG13  12527.687460 -15082.570820  17825.210815    -79.951780  6  7  5 113       
PG14 -14078.954884  -9126.255924 -20396.070912     95.665123  7  3  5 117       
PG15   3742.033442 -24463.615829   9114.373739   -227.070612  8  9  6 100       
PG16 -17883.824455   4513.088054  19196.027436   -163.936167  9  8  8 131       
PG17  13743.048836  11307.516205 -19503.551907   -150.709690  6  7  4 106       
PG18 -19295.708029 -16331.482082   9117.291757    373.175373  6  5  5  93       
PG19  -8982.894685  21217.744183  12627.173913   -497.124252  6  4  6 124       
PG20  15921.412622  16912.090455 -13192.283240    280.020006  5  7  7 106       
PG21 -12105.484678 -11032.709249  21621.246220   -407.125780  3  5  4 114       
PG22 -24892.649140  -9034.380021  -2804.001396    308.723420  5  5  3 103       
PG23    785.133101  26257.467288  -1604.246467    -82.583398  9  9  6  88       
PG24  10060.736285 -19766.841771 -14533.717487    -42.001193 10 10 11 142       
PG25 -12386.742588 -17608.098480 -15737.095246      2.418749  8  7  5 120       
PG27 -12661.165782  12400.923996  19746.064824     45.188000  6  5  7 126       
PG28  22658.164102  13928.616590   1600.520431    413.326281  6  6  3  97       
PG29  -4595.687167 -25550.621130   5735.635964    586.686696  7  7  5 103       
PG30  15912.222797   7068.128713  20067.854813    -86.408623  3  5  3 127       
PG31 -22937.705115   4503.413208 -12782.231504    325.208158  6  6  5 103       
PG32 -11649.678592  10873.137067 -21180.372612   -244.689673  6  7  3  89       
EOF
